{
    "links": {
        "self": "http://www.neowsapp.com/rest/v1/neo/3825476?api_key=iIulBulltgU6a56xZRHN4H3l9WmuAYTsLGpBGhQ2"
    },
    "id": "3825476",
    "neo_reference_id": "3825476",
    "name": "(2018 MV6)",
    "designation": "2018 MV6",
    "nasa_jpl_url": "http://ssd.jpl.nasa.gov/sbdb.cgi?sstr=3825476",
    "absolute_magnitude_h": 22.7,
    "estimated_diameter": {
        "kilometers": {
            "estimated_diameter_min": 0.0766575574,
            "estimated_diameter_max": 0.1714115092
        },
        "meters": {
            "estimated_diameter_min": 76.6575573531,
            "estimated_diameter_max": 171.4115092306
        },
        "miles": {
            "estimated_diameter_min": 0.0476327831,
            "estimated_diameter_max": 0.1065101409
        },
        "feet": {
            "estimated_diameter_min": 251.5011804664,
            "estimated_diameter_max": 562.3737359442
        }
    },
    "is_potentially_hazardous_asteroid": false,
    "close_approach_data": [
        {
            "close_approach_date": "2018-07-07",
            "close_approach_date_full": "2018-Jul-07 18:14",
            "epoch_date_close_approach": 1530987240000,
            "relative_velocity": {
                "kilometers_per_second": "20.1472802364",
                "kilometers_per_hour": "72530.2088510468",
                "miles_per_hour": "45067.4511608074"
            },
            "miss_distance": {
                "astronomical": "0.064972997",
                "lunar": "25.274495833",
                "kilometers": "9719821.95871639",
                "miles": "6039617.304370582"
            },
            "orbiting_body": "Earth"
        }
    ],
    "orbital_data": {
        "orbit_id": "1",
        "orbit_determination_date": "2018-06-21 17:12:02",
        "first_observation_date": "2018-06-15",
        "last_observation_date": "2018-06-21",
        "data_arc_in_days": 6,
        "observations_used": 11,
        "orbit_uncertainty": "9",
        "minimum_orbit_intersection": ".02029",
        "jupiter_tisserand_invariant": "2.947",
        "epoch_osculation": "2458287.5",
        "eccentricity": ".730639287391378",
        "semi_major_axis": "2.630755880668823",
        "inclination": "3.847139291010538",
        "ascending_node_longitude": "54.18348929328351",
        "orbital_period": "1558.544660743311",
        "perihelion_distance": ".7086222787162774",
        "perihelion_argument": "307.3788131134949",
        "aphelion_distance": "4.552889482621369",
        "perihelion_time": "2458351.845712470069",
        "mean_anomaly": "345.1371237073328",
        "mean_motion": ".2309847186722943",
        "equinox": "J2000",
        "orbit_class": {
            "orbit_class_type": "APO",
            "orbit_class_description": "Near-Earth asteroid orbits which cross the Earth’s orbit similar to that of 1862 Apollo",
            "orbit_class_range": "a (semi-major axis) > 1.0 AU; q (perihelion) < 1.017 AU"
        }
    },
    "is_sentry_object": false
}